[{"OBJECT_NAME":"GEESAT-1 03","OBJECT_ID":"2022-058C","EPOCH":"2026-03-09T22:14:40.890624","MEAN_MOTION":14.81007855,"ECCENTRICITY":0.00085744,"INCLINATION":49.9869,"RA_OF_ASC_NODE":299.7347,"ARG_OF_PERICENTER":85.2975,"MEAN_ANOMALY":274.8941,"EPHEMERIS_TYPE":0,"CLASSIFICATION_TYPE":"U","NORAD_CAT_ID":52787,"ELEMENT_SET_NO":999,"REV_AT_EPOCH":20522,"BSTAR":0.00036442214,"MEAN_MOTION_DOT":2.633e-5,"MEAN_MOTION_DDOT":0},{"OBJECT_NAME":"FENGYUN 1C DEB","OBJECT_ID":"1999-025BBA","EPOCH":"2026-03-08T04:01:46.595424","MEAN_MOTION":14.68382206,"ECCENTRICITY":0.01906782,"INCLINATION":99.0027,"RA_OF_ASC_NODE":196.6188,"ARG_OF_PERICENTER":258.0888,"MEAN_ANOMALY":99.8879,"EPHEMERIS_TYPE":0,"CLASSIFICATION_TYPE":"U","NORAD_CAT_ID":30960,"ELEMENT_SET_NO":999,"REV_AT_EPOCH":99951,"BSTAR":0.0022197351,"MEAN_MOTION_DOT":0.00016894,"MEAN_MOTION_DDOT":0}]
